[
    {
        "ARG_OF_PERICENTER": 22.3552,
        "BSTAR": 0.00011872,
        "CLASSIFICATION_TYPE": "U",
        "ECCENTRICITY": 0.0007325,
        "ELEMENT_SET_NO": 999,
        "EPHEMERIS_TYPE": 0,
        "EPOCH": "2026-05-04T10:59:11.424768",
        "INCLINATION": 51.6305,
        "MEAN_ANOMALY": 337.7754,
        "MEAN_MOTION": 15.49089675,
        "MEAN_MOTION_DDOT": 0,
        "MEAN_MOTION_DOT": 6.118e-05,
        "NORAD_CAT_ID": 25544,
        "OBJECT_ID": "1998-067A",
        "OBJECT_NAME": "ISS (ZARYA)",
        "RA_OF_ASC_NODE": 156.557,
        "REV_AT_EPOCH": 56497
    },
    {
        "ARG_OF_PERICENTER": 22.3552,
        "BSTAR": 0.00011872,
        "CLASSIFICATION_TYPE": "U",
        "ECCENTRICITY": 0.0007325,
        "ELEMENT_SET_NO": 999,
        "EPHEMERIS_TYPE": 0,
        "EPOCH": "2026-05-04T10:59:11.424768",
        "INCLINATION": 51.6305,
        "MEAN_ANOMALY": 337.7754,
        "MEAN_MOTION": 15.49089675,
        "MEAN_MOTION_DDOT": 0,
        "MEAN_MOTION_DOT": 6.118e-05,
        "NORAD_CAT_ID": 36086,
        "OBJECT_ID": "2009-060A",
        "OBJECT_NAME": "POISK",
        "RA_OF_ASC_NODE": 156.557,
        "REV_AT_EPOCH": 56507
    },
    {
        "ARG_OF_PERICENTER": 329.6467,
        "BSTAR": 0.00025575,
        "CLASSIFICATION_TYPE": "U",
        "ECCENTRICITY": 0.0005472,
        "ELEMENT_SET_NO": 999,
        "EPHEMERIS_TYPE": 0,
        "EPOCH": "2026-05-04T11:13:35.687424",
        "INCLINATION": 41.4668,
        "MEAN_ANOMALY": 30.4055,
        "MEAN_MOTION": 15.63287595,
        "MEAN_MOTION_DDOT": 0,
        "MEAN_MOTION_DOT": 0.00023903,
        "NORAD_CAT_ID": 48274,
        "OBJECT_ID": "2021-035A",
        "OBJECT_NAME": "CSS (TIANHE)",
        "RA_OF_ASC_NODE": 228.0848,
        "REV_AT_EPOCH": 28633
    },
    {
        "ARG_OF_PERICENTER": 22.3552,
        "BSTAR": 0.00011872,
        "CLASSIFICATION_TYPE": "U",
        "ECCENTRICITY": 0.0007325,
        "ELEMENT_SET_NO": 999,
        "EPHEMERIS_TYPE": 0,
        "EPOCH": "2026-05-04T10:59:11.424768",
        "INCLINATION": 51.6305,
        "MEAN_ANOMALY": 337.7754,
        "MEAN_MOTION": 15.49089675,
        "MEAN_MOTION_DDOT": 0,
        "MEAN_MOTION_DOT": 6.118e-05,
        "NORAD_CAT_ID": 49044,
        "OBJECT_ID": "2021-066A",
        "OBJECT_NAME": "ISS (NAUKA)",
        "RA_OF_ASC_NODE": 156.557,
        "REV_AT_EPOCH": 56511
    },
    {
        "ARG_OF_PERICENTER": 186.864,
        "BSTAR": 0.012449,
        "CLASSIFICATION_TYPE": "U",
        "ECCENTRICITY": 0.0935379,
        "ELEMENT_SET_NO": 999,
        "EPHEMERIS_TYPE": 0,
        "EPOCH": "2026-05-04T10:08:31.256736",
        "INCLINATION": 51.6384,
        "MEAN_ANOMALY": 171.8597,
        "MEAN_MOTION": 12.41231812,
        "MEAN_MOTION_DDOT": 0,
        "MEAN_MOTION_DOT": 8.021e-05,
        "NORAD_CAT_ID": 49271,
        "OBJECT_ID": "2011-037PF",
        "OBJECT_NAME": "FREGAT DEB",
        "RA_OF_ASC_NODE": 133.3846,
        "REV_AT_EPOCH": 21961
    },
    {
        "ARG_OF_PERICENTER": 325.0701,
        "BSTAR": 0.00030856029,
        "CLASSIFICATION_TYPE": "U",
        "ECCENTRICITY": 0.00056115,
        "ELEMENT_SET_NO": 999,
        "EPHEMERIS_TYPE": 0,
        "EPOCH": "2026-05-03T18:21:39.415392",
        "INCLINATION": 41.4671,
        "MEAN_ANOMALY": 34.977,
        "MEAN_MOTION": 15.63252154,
        "MEAN_MOTION_DDOT": 0,
        "MEAN_MOTION_DOT": 0.00028891,
        "NORAD_CAT_ID": 53239,
        "OBJECT_ID": "2022-085A",
        "OBJECT_NAME": "CSS (WENTIAN)",
        "RA_OF_ASC_NODE": 232.3771,
        "REV_AT_EPOCH": 28625
    },
    {
        "ARG_OF_PERICENTER": 329.6467,
        "BSTAR": 0.00025575,
        "CLASSIFICATION_TYPE": "U",
        "ECCENTRICITY": 0.0005472,
        "ELEMENT_SET_NO": 999,
        "EPHEMERIS_TYPE": 0,
        "EPOCH": "2026-05-04T11:13:35.687424",
        "INCLINATION": 41.4668,
        "MEAN_ANOMALY": 30.4055,
        "MEAN_MOTION": 15.63287595,
        "MEAN_MOTION_DDOT": 0,
        "MEAN_MOTION_DOT": 0.00023903,
        "NORAD_CAT_ID": 54216,
        "OBJECT_ID": "2022-143A",
        "OBJECT_NAME": "CSS (MENGTIAN)",
        "RA_OF_ASC_NODE": 228.0848,
        "REV_AT_EPOCH": 28659
    },
    {
        "ARG_OF_PERICENTER": 329.6467,
        "BSTAR": 0.00025575,
        "CLASSIFICATION_TYPE": "U",
        "ECCENTRICITY": 0.0005472,
        "ELEMENT_SET_NO": 999,
        "EPHEMERIS_TYPE": 0,
        "EPOCH": "2026-05-04T11:13:35.687424",
        "INCLINATION": 41.4668,
        "MEAN_ANOMALY": 30.4055,
        "MEAN_MOTION": 15.63287595,
        "MEAN_MOTION_DDOT": 0,
        "MEAN_MOTION_DOT": 0.00023903,
        "NORAD_CAT_ID": 64786,
        "OBJECT_ID": "2025-149A",
        "OBJECT_NAME": "TIANZHOU-9",
        "RA_OF_ASC_NODE": 228.0848,
        "REV_AT_EPOCH": 28660
    },
    {
        "ARG_OF_PERICENTER": 10.9025,
        "BSTAR": 0.00044213,
        "CLASSIFICATION_TYPE": "U",
        "ECCENTRICITY": 0.0005105,
        "ELEMENT_SET_NO": 999,
        "EPHEMERIS_TYPE": 0,
        "EPOCH": "2026-05-04T05:51:38.625120",
        "INCLINATION": 51.6239,
        "MEAN_ANOMALY": 349.2081,
        "MEAN_MOTION": 15.68353458,
        "MEAN_MOTION_DDOT": 0,
        "MEAN_MOTION_DOT": 0.00050487,
        "NORAD_CAT_ID": 66052,
        "OBJECT_ID": "1998-067XR",
        "OBJECT_NAME": "HRC MONOBLOCK CAMERA",
        "RA_OF_ASC_NODE": 143.8588,
        "REV_AT_EPOCH": 3109
    },
    {
        "ARG_OF_PERICENTER": 23.6261,
        "BSTAR": 0.00014587,
        "CLASSIFICATION_TYPE": "U",
        "ECCENTRICITY": 0.0007394,
        "ELEMENT_SET_NO": 999,
        "EPHEMERIS_TYPE": 0,
        "EPOCH": "2026-05-04T09:02:53.093760",
        "INCLINATION": 51.6338,
        "MEAN_ANOMALY": 336.5071,
        "MEAN_MOTION": 15.63250248,
        "MEAN_MOTION_DDOT": 0,
        "MEAN_MOTION_DOT": 0.0001313,
        "NORAD_CAT_ID": 66174,
        "OBJECT_ID": "2025-241A",
        "OBJECT_NAME": "HTV-X1",
        "RA_OF_ASC_NODE": 161.9351,
        "REV_AT_EPOCH": 2949
    },
    {
        "ARG_OF_PERICENTER": 24.1667,
        "BSTAR": 0.00028434,
        "CLASSIFICATION_TYPE": "U",
        "ECCENTRICITY": 0.0002891,
        "ELEMENT_SET_NO": 999,
        "EPHEMERIS_TYPE": 0,
        "EPOCH": "2026-05-04T07:46:46.490880",
        "INCLINATION": 41.4728,
        "MEAN_ANOMALY": 335.9312,
        "MEAN_MOTION": 15.72922384,
        "MEAN_MOTION_DDOT": 0,
        "MEAN_MOTION_DOT": 0.00039703,
        "NORAD_CAT_ID": 66515,
        "OBJECT_ID": "2025-246C",
        "OBJECT_NAME": "SZ-21 MODULE",
        "RA_OF_ASC_NODE": 219.7565,
        "REV_AT_EPOCH": 2682
    },
    {
        "ARG_OF_PERICENTER": 329.6467,
        "BSTAR": 0.00025575,
        "CLASSIFICATION_TYPE": "U",
        "ECCENTRICITY": 0.0005472,
        "ELEMENT_SET_NO": 999,
        "EPHEMERIS_TYPE": 0,
        "EPOCH": "2026-05-04T11:13:35.687424",
        "INCLINATION": 41.4668,
        "MEAN_ANOMALY": 30.4055,
        "MEAN_MOTION": 15.63287595,
        "MEAN_MOTION_DDOT": 0,
        "MEAN_MOTION_DOT": 0.00023903,
        "NORAD_CAT_ID": 66645,
        "OBJECT_ID": "2025-272A",
        "OBJECT_NAME": "SHENZHOU-22",
        "RA_OF_ASC_NODE": 228.0848,
        "REV_AT_EPOCH": 28661
    },
    {
        "ARG_OF_PERICENTER": 22.3552,
        "BSTAR": 0.00011872,
        "CLASSIFICATION_TYPE": "U",
        "ECCENTRICITY": 0.0007325,
        "ELEMENT_SET_NO": 999,
        "EPHEMERIS_TYPE": 0,
        "EPOCH": "2026-05-04T10:59:11.424768",
        "INCLINATION": 51.6305,
        "MEAN_ANOMALY": 337.7754,
        "MEAN_MOTION": 15.49089675,
        "MEAN_MOTION_DDOT": 0,
        "MEAN_MOTION_DOT": 6.118e-05,
        "NORAD_CAT_ID": 66664,
        "OBJECT_ID": "2025-275A",
        "OBJECT_NAME": "SOYUZ-MS 28",
        "RA_OF_ASC_NODE": 156.557,
        "REV_AT_EPOCH": 56535
    }
]