ISS (ZARYA)             
1 25544U 98067A   26124.45777112  .00006118  00000+0  11872-3 0  9996
2 25544  51.6305 156.5570 0007325  22.3552 337.7754 15.49089675564978
POISK                   
1 36086U 09060A   26124.45777112  .00006118  00000+0  11872-3 0  9994
2 36086  51.6305 156.5570 0007325  22.3552 337.7754 15.49089675565073
CSS (TIANHE)            
1 48274U 21035A   26124.46777416  .00023903  00000+0  25575-3 0  9996
2 48274  41.4668 228.0848 0005472 329.6467  30.4055 15.63287595286333
ISS (NAUKA)             
1 49044U 21066A   26124.45777112  .00006118  00000+0  11872-3 0  9992
2 49044  51.6305 156.5570 0007325  22.3552 337.7754 15.49089675565116
FREGAT DEB              
1 49271U 11037PF  26124.42258399  .00008021  00000+0  12449-1 0  9993
2 49271  51.6384 133.3846 0935379 186.8640 171.8597 12.41231812219611
CSS (WENTIAN)           
1 53239U 22085A   26123.76503953  .00028891  00000+0  30856-3 0  9993
2 53239  41.4671 232.3771 0005611 325.0701  34.9770 15.63252154286250
CSS (MENGTIAN)          
1 54216U 22143A   26124.46777416  .00023903  00000+0  25575-3 0  9990
2 54216  41.4668 228.0848 0005472 329.6467  30.4055 15.63287595286594
TIANZHOU-9              
1 64786U 25149A   26124.46777416  .00023903  00000+0  25575-3 0  9992
2 64786  41.4668 228.0848 0005472 329.6467  30.4055 15.63287595286609
HRC MONOBLOCK CAMERA    
1 66052U 98067XR  26124.24419705  .00050487  00000+0  44213-3 0  9996
2 66052  51.6239 143.8588 0005105  10.9025 349.2081 15.68353458 31090
HTV-X1                  
1 66174U 25241A   26124.37700340  .00013130  00000+0  14587-3 0  9992
2 66174  51.6338 161.9351 0007394  23.6261 336.5071 15.63250248 29496
SZ-21 MODULE            
1 66515U 25246C   26124.32414920  .00039703  00000+0  28434-3 0  9997
2 66515  41.4728 219.7565 0002891  24.1667 335.9312 15.72922384 26829
SHENZHOU-22             
1 66645U 25272A   26124.46777416  .00023903  00000+0  25575-3 0  9995
2 66645  41.4668 228.0848 0005472 329.6467  30.4055 15.63287595286616
SOYUZ-MS 28             
1 66664U 25275A   26124.45777112  .00006118  00000+0  11872-3 0  9995
2 66664  51.6305 156.5570 0007325  22.3552 337.7754 15.49089675565359
